[{"OBJECT_NAME":"NOAA 20 (JPSS-1)","OBJECT_ID":"2017-073A","EPOCH":"2026-03-09T21:34:23.263968","MEAN_MOTION":14.19536148,"ECCENTRICITY":0.00012278,"INCLINATION":98.7691,"RA_OF_ASC_NODE":9.284,"ARG_OF_PERICENTER":138.0033,"MEAN_ANOMALY":222.1238,"EPHEMERIS_TYPE":0,"CLASSIFICATION_TYPE":"U","NORAD_CAT_ID":43013,"ELEMENT_SET_NO":999,"REV_AT_EPOCH":43038,"BSTAR":6.8959463e-5,"MEAN_MOTION_DOT":1.01e-6,"MEAN_MOTION_DDOT":0},{"OBJECT_NAME":"CZ-6A DEB","OBJECT_ID":"2024-140JD","EPOCH":"2026-03-09T13:18:11.363616","MEAN_MOTION":14.2395187,"ECCENTRICITY":0.00270402,"INCLINATION":88.855,"RA_OF_ASC_NODE":276.0147,"ARG_OF_PERICENTER":117.4722,"MEAN_ANOMALY":242.9224,"EPHEMERIS_TYPE":0,"CLASSIFICATION_TYPE":"U","NORAD_CAT_ID":60850,"ELEMENT_SET_NO":999,"REV_AT_EPOCH":8138,"BSTAR":0.00017923306,"MEAN_MOTION_DOT":4.28e-6,"MEAN_MOTION_DDOT":0}]
